[Satellite]
VERSION=1.1
NAME=CZ-6A DEB
NICKNAME=CZ-6A DEB
TLE1=1 54354U 22151CZ  22342.26434562  .00005710  00000+0  15933-2 0  9992
TLE2=2 54354  98.8124 347.9509 0190327 240.8078 117.3950 14.36544471  3214
STATUS=0
